{"type":"FeatureCollection", "features": [
{"type":"Feature","geometry":{"type":"Polygon","coordinates":[[[-97.8421775,20.8398866],[-97.8453486,20.8397661],[-97.8557636,20.8331877],[-97.8617385,20.8353685],[-97.8707719,20.8313366],[-97.8791198,20.8342759],[-97.8886377,20.8146245],[-97.8970931,20.7913976],[-97.90081,20.77964],[-97.9036652,20.7750036],[-97.9175556,20.7307888],[-97.9224466,20.7165188],[-97.8974257,20.7032138],[-97.9064672,20.6906033],[-97.9118032,20.690515],[-97.9143703,20.6872118],[-97.9178347,20.6712445],[-97.9133349,20.6719708],[-97.9077911,20.664294],[-97.9093539,20.6564718],[-97.9118441,20.6535151],[-97.9085065,20.6498807],[-97.9067745,20.6436466],[-97.9016361,20.6408025],[-97.9000645,20.6331341],[-97.8952132,20.6225333],[-97.9051722,20.6094469],[-97.9060403,20.598668],[-97.9107493,20.5937767],[-97.9094617,20.5877955],[-97.9214932,20.5791283],[-97.92729,20.5718887],[-97.9351237,20.5675901],[-97.9382494,20.5684408],[-97.9431058,20.5626069],[-97.9563119,20.5568615],[-97.9808161,20.5407089],[-97.9815265,20.5256794],[-97.9726303,20.5232024],[-97.9793337,20.5149334],[-97.9850434,20.5170365],[-97.9915914,20.5130467],[-97.9933284,20.5025253],[-97.988791,20.4953852],[-97.9919354,20.4928173],[-97.9933704,20.4852214],[-97.9983018,20.4870991],[-97.9998508,20.4825447],[-98.0086114,20.4829218],[-98.0083425,20.474746],[-98.0119226,20.4710001],[-98.0145,20.4599347],[-98.0219482,20.4488933],[-98.0334822,20.4477846],[-98.0399909,20.4401851],[-98.0448132,20.4365697],[-98.050466,20.4399445],[-98.0631616,20.4359847],[-98.0706026,20.4301414],[-98.0761084,20.417685],[-98.072695,20.4144328],[-98.0790447,20.4089281],[-98.0773179,20.4031198],[-98.088375,20.3964026],[-98.0886482,20.3904191],[-98.1019374,20.3802836],[-98.1023143,20.3749543],[-98.1080216,20.373565],[-98.1067403,20.3681234],[-98.1156099,20.3632034],[-98.1125038,20.3542957],[-98.1239999,20.3485028],[-98.1271947,20.3443929],[-98.1242384,20.3414808],[-98.1268355,20.336231],[-98.1315286,20.3365283],[-98.1449114,20.3305489],[-98.1576134,20.3324518],[-98.1632536,20.3278486],[-98.1694947,20.3323202],[-98.1799851,20.3359118],[-98.1796657,20.3268474],[-98.1779366,20.3209424],[-98.179537,20.3127858],[-98.177923,20.3094134],[-98.1804201,20.3034493],[-98.1780678,20.2948259],[-98.190287,20.2940164],[-98.1944833,20.2908374],[-98.2004475,20.2921005],[-98.2060346,20.2960422],[-98.2155057,20.2915038],[-98.2247676,20.295113],[-98.2318877,20.2962278],[-98.2364765,20.3043475],[-98.2447104,20.3019203],[-98.2519975,20.3018755],[-98.2574176,20.2985564],[-98.2560825,20.2866024],[-98.2604319,20.2855249],[-98.2672261,20.2723106],[-98.2805665,20.2661666],[-98.2844435,20.2627889],[-98.2842195,20.2499793],[-98.2813832,20.2336492],[-98.2765416,20.2205052],[-98.2705462,20.2158063],[-98.2597406,20.2152638],[-98.2532565,20.2181593],[-98.2445119,20.2178379],[-98.2412673,20.2219349],[-98.2360911,20.2234828],[-98.2347678,20.23176],[-98.2299737,20.2361241],[-98.2162203,20.2379206],[-98.2138054,20.2343613],[-98.2082926,20.2393647],[-98.2091519,20.2441817],[-98.2049509,20.2450232],[-98.1975404,20.2541221],[-98.1923957,20.2582178],[-98.1845935,20.2591068],[-98.1806477,20.2552029],[-98.1759249,20.2542295],[-98.1625388,20.2405294],[-98.1570619,20.2381965],[-98.1477263,20.2263854],[-98.1552447,20.2158403],[-98.1500385,20.2058446],[-98.1419534,20.1991016],[-98.1335272,20.1896447],[-98.129656,20.1888034],[-98.1276495,20.18238],[-98.1327093,20.1701784],[-98.1330925,20.1660263],[-98.1297362,20.1617451],[-98.1356395,20.156158],[-98.1395855,20.1549611],[-98.1396944,20.1503474],[-98.1218128,20.1477985],[-98.1050794,20.1422795],[-98.102337,20.14581],[-98.0980883,20.1437358],[-98.1025333,20.138484],[-98.1018144,20.1308955],[-98.1084625,20.1208034],[-98.1165872,20.1200861],[-98.1219133,20.1246346],[-98.1276953,20.1161998],[-98.1282727,20.1072026],[-98.1477579,20.0973769],[-98.159237,20.0930526],[-98.1602729,20.090177],[-98.1571908,20.0848675],[-98.1626774,20.0761779],[-98.1681335,20.0572687],[-98.1764488,20.0521293],[-98.1809028,20.0469855],[-98.1790371,20.0415329],[-98.1735292,20.0344763],[-98.1746884,20.0292579],[-98.1639611,20.0224578],[-98.1697586,20.0130313],[-98.170342,20.0065746],[-98.1742012,19.9974491],[-98.1646883,19.9858514],[-98.160428,19.9781296],[-98.1806976,19.9597516],[-98.197825,19.959793],[-98.2011405,19.9644696],[-98.2129366,19.9653183],[-98.2190617,19.9671963],[-98.2258714,19.958269],[-98.2301723,19.9494064],[-98.2495667,19.949189],[-98.2538465,19.9460702],[-98.2427172,19.9417241],[-98.2460913,19.9371721],[-98.2510413,19.9348513],[-98.2500987,19.9262316],[-98.2452402,19.9238444],[-98.2563393,19.9150242],[-98.2577954,19.9165005],[-98.2678202,19.9161139],[-98.2687159,19.9131563],[-98.2666412,19.9016937],[-98.2693518,19.8957091],[-98.2866437,19.887254],[-98.2910749,19.8758124],[-98.3044729,19.8701159],[-98.3144315,19.8543777],[-98.306557,19.8512628],[-98.3005639,19.8452657],[-98.2959999,19.847581],[-98.2867499,19.8490976],[-98.2835405,19.8469692],[-98.2774717,19.8481621],[-98.2671491,19.843336],[-98.2650286,19.8251218],[-98.2632225,19.821283],[-98.2566524,19.8202634],[-98.2508581,19.812758],[-98.2497212,19.7987619],[-98.2510275,19.7950645],[-98.2446986,19.7919242],[-98.2366528,19.7811222],[-98.2352226,19.7775071],[-98.2298383,19.774483],[-98.2209726,19.7781417],[-98.2161556,19.778417],[-98.2026414,19.7679549],[-98.1944842,19.7655897],[-98.1982871,19.7612787],[-98.1957745,19.7543045],[-98.1978455,19.7487878],[-98.1967137,19.7427025],[-98.2043772,19.7385937],[-98.210828,19.7386398],[-98.2151093,19.7413145],[-98.2189601,19.736987],[-98.2313694,19.7292349],[-98.2382372,19.7223124],[-98.2486211,19.7191839],[-98.253978,19.7154693],[-98.2550345,19.708199],[-98.252576,19.7027307],[-98.2524113,19.6931258],[-98.2445123,19.685492],[-98.2407863,19.6758566],[-98.2327541,19.6768293],[-98.2206647,19.6736721],[-98.2095814,19.6771742],[-98.2068636,19.6746835],[-98.1905459,19.6762788],[-98.1873685,19.6797324],[-98.1813028,19.6736988],[-98.1766789,19.6746409],[-98.1696074,19.6727629],[-98.1645262,19.6689795],[-98.1597216,19.669391],[-98.1484206,19.6784037],[-98.1437305,19.6836488],[-98.1247038,19.6852099],[-98.1186213,19.6882423],[-98.1103969,19.6857814],[-98.106513,19.6817812],[-98.0988249,19.6696732],[-98.0928605,19.6744986],[-98.0905053,19.6786006],[-98.0927017,19.683298],[-98.0904484,19.6894559],[-98.084273,19.693399],[-98.0828074,19.7007558],[-98.074288,19.7006924],[-98.0688091,19.703366],[-98.064526,19.7097344],[-98.0681128,19.7160102],[-98.0659716,19.728077],[-98.0608084,19.7289174],[-98.0559947,19.7258616],[-98.0523805,19.7128015],[-98.0498781,19.7123085],[-98.0400669,19.6995926],[-98.0398446,19.6895107],[-98.0373503,19.6881721],[-98.0360134,19.6776837],[-98.0360039,19.6650821],[-98.0378839,19.6484747],[-98.042212,19.6402247],[-98.0039841,19.6320247],[-98.0004823,19.6322335],[-97.989043,19.6291643],[-97.9799044,19.6281578],[-97.9733223,19.6241744],[-97.9704166,19.6179018],[-97.9630175,19.6128982],[-97.9579198,19.6029822],[-97.9513787,19.6037383],[-97.9494283,19.5959512],[-97.950419,19.5912523],[-97.9467064,19.5856302],[-97.9337214,19.589124],[-97.9251329,19.5885194],[-97.9190073,19.592444],[-97.9141737,19.5920933],[-97.9114209,19.583875],[-97.9079246,19.5793559],[-97.9006704,19.5780894],[-97.8924973,19.5725919],[-97.8815346,19.5717214],[-97.8757454,19.5638467],[-97.8720183,19.5619984],[-97.8681848,19.5533454],[-97.871681,19.5321522],[-97.8779369,19.5241016],[-97.8875152,19.5176354],[-97.8896057,19.5043476],[-97.8812645,19.4998307],[-97.877435,19.5027325],[-97.8723676,19.5020183],[-97.8699795,19.4976146],[-97.8581708,19.4931279],[-97.8487391,19.4827819],[-97.8473532,19.4740031],[-97.8574769,19.464786],[-97.8618318,19.4564953],[-97.8594225,19.4543459],[-97.8539305,19.4583031],[-97.8523178,19.4620636],[-97.8459465,19.4689273],[-97.814748,19.4825213],[-97.812573,19.4868551],[-97.8054591,19.4894698],[-97.795334,19.4956916],[-97.7949011,19.4864867],[-97.7968202,19.4850345],[-97.7968593,19.4724428],[-97.7865801,19.4704523],[-97.7780457,19.4728774],[-97.7739636,19.4691746],[-97.7736391,19.4587752],[-97.7634214,19.4572278],[-97.7548014,19.4575429],[-97.7569267,19.453155],[-97.7539821,19.4503685],[-97.7469865,19.450437],[-97.7446469,19.4435479],[-97.7472787,19.436334],[-97.7421378,19.4323222],[-97.734492,19.4336055],[-97.7245251,19.4316369],[-97.7211394,19.418575],[-97.7119406,19.406321],[-97.7065925,19.4030422],[-97.7077246,19.3998073],[-97.7054549,19.3936414],[-97.6981731,19.395615],[-97.6938104,19.3891634],[-97.6857025,19.3870397],[-97.6819694,19.388446],[-97.6790935,19.3847747],[-97.6762778,19.3761669],[-97.676522,19.3714004],[-97.6738588,19.3674715],[-97.6579794,19.3636741],[-97.6536509,19.3593621],[-97.6536311,19.3538],[-97.6402903,19.3607515],[-97.6314461,19.3553954],[-97.6356587,19.3437496],[-97.6387117,19.3382631],[-97.6256742,19.3313937],[-97.6263556,19.323934],[-97.6328545,19.3202781],[-97.6389487,19.31905],[-97.6460889,19.3064093],[-97.6580447,19.3106645],[-97.6665224,19.2947231],[-97.6695202,19.2921342],[-97.678348,19.2924288],[-97.6909333,19.2858881],[-97.7047369,19.2970577],[-97.7104674,19.2956354],[-97.7157496,19.2978491],[-97.719643,19.3047532],[-97.7293234,19.2931099],[-97.7383327,19.2870996],[-97.7370268,19.2966903],[-97.7450918,19.3052599],[-97.7537052,19.2995845],[-97.7570541,19.299768],[-97.7650855,19.2868591],[-97.7713855,19.2837526],[-97.787279,19.2901238],[-97.8004714,19.3015834],[-97.8208569,19.304731],[-97.8386508,19.3015622],[-97.8372791,19.2958227],[-97.841604,19.2878141],[-97.859717,19.2871995],[-97.8702871,19.270586],[-97.8540518,19.2573283],[-97.8651356,19.2539494],[-97.8704726,19.2402768],[-97.8603834,19.2440774],[-97.8539054,19.2260908],[-97.8509883,19.2229342],[-97.8621232,19.2138406],[-97.8905881,19.2019635],[-97.8950193,19.1983115],[-97.8936297,19.1922867],[-97.8898391,19.1869567],[-97.9025063,19.1796079],[-97.9080177,19.1808335],[-97.91499,19.1761475],[-97.9282027,19.1642134],[-97.9375895,19.1704507],[-97.9503127,19.1773094],[-97.9667186,19.1874688],[-97.9789502,19.1925701],[-97.9986234,19.1983247],[-98.0013656,19.2036678],[-98.0094003,19.2113764],[-98.0316863,19.2309384],[-98.0352339,19.2241264],[-98.0346179,19.218772],[-98.0415306,19.2102317],[-98.0498804,19.2074744],[-98.0593266,19.2012264],[-98.0627726,19.1949242],[-98.0688981,19.1895577],[-98.0696127,19.185167],[-98.0798477,19.1759572],[-98.0935706,19.1661812],[-98.1001166,19.1629163],[-98.1032229,19.1525736],[-98.112271,19.1414875],[-98.1194212,19.1352812],[-98.1321652,19.1287039],[-98.1474438,19.1144142],[-98.1470286,19.122045],[-98.1548725,19.11648],[-98.1617543,19.1072722],[-98.1661758,19.1050719],[-98.1843609,19.1153645],[-98.1950186,19.1166395],[-98.1917077,19.1227864],[-98.1971426,19.1274971],[-98.188184,19.1355165],[-98.1907067,19.1399857],[-98.2004803,19.1375447],[-98.2080402,19.1326995],[-98.2230389,19.1366376],[-98.2244177,19.1418536],[-98.2298961,19.1490398],[-98.2302412,19.1567286],[-98.2420754,19.1575765],[-98.254578,19.1606658],[-98.2604815,19.1603968],[-98.2715083,19.1633082],[-98.293348,19.177434],[-98.3024144,19.1868336],[-98.3121727,19.1903988],[-98.3239293,19.1686619],[-98.325329,19.1700922],[-98.3427103,19.1779397],[-98.3378928,19.1920501],[-98.330681,19.20015],[-98.3368458,19.2036328],[-98.3441568,19.2053011],[-98.3518621,19.2190036],[-98.3607003,19.2235286],[-98.368915,19.226122],[-98.3645463,19.2331253],[-98.3703965,19.2360201],[-98.3759029,19.2454815],[-98.3804035,19.2617156],[-98.3891023,19.270989],[-98.4013286,19.2823982],[-98.4017632,19.2878802],[-98.4069317,19.2882328],[-98.410251,19.2917114],[-98.4077214,19.3159317],[-98.4137886,19.3193749],[-98.4207042,19.3199468],[-98.4269251,19.3270486],[-98.441273,19.3252511],[-98.453058,19.3448006],[-98.4558876,19.3464954],[-98.4644274,19.3562383],[-98.4702777,19.3608309],[-98.4867981,19.3890423],[-98.4873422,19.3976555],[-98.4984807,19.4164507],[-98.5037413,19.4204365],[-98.5062436,19.4259996],[-98.5103442,19.428],[-98.5130306,19.4360353],[-98.5162799,19.4391759],[-98.5231921,19.4608687],[-98.5352138,19.4623224],[-98.5438522,19.4604104],[-98.5579199,19.4626433],[-98.5702761,19.4667693],[-98.5912756,19.4492142],[-98.6091581,19.4506133],[-98.6157338,19.4520645],[-98.6294066,19.457018],[-98.6341147,19.4678482],[-98.6405359,19.4633041],[-98.6532266,19.4659862],[-98.6614352,19.4580903],[-98.634822,19.4312419],[-98.637719,19.4264433],[-98.6487575,19.4315932],[-98.6601784,19.4320936],[-98.6563485,19.4220926],[-98.6608589,19.4142244],[-98.6585773,19.4093716],[-98.6628479,19.4029983],[-98.657137,19.3970782],[-98.6564215,19.38603],[-98.6581296,19.3827085],[-98.6540593,19.3694027],[-98.6504395,19.3645549],[-98.6403959,19.3647162],[-98.6380798,19.358911],[-98.6445188,19.3574696],[-98.6444793,19.352],[-98.654949,19.3492997],[-98.6604954,19.3512625],[-98.6610661,19.3392475],[-98.6634759,19.3247924],[-98.6457759,19.2901386],[-98.6280549,19.2572405],[-98.6323624,19.2504498],[-98.6408061,19.2434137],[-98.6435712,19.2387299],[-98.6428838,19.2206687],[-98.6470224,19.1848279],[-98.6429304,19.1756862],[-98.6362936,19.1540583],[-98.6389162,19.1505991],[-98.6406571,19.1254557],[-98.6396404,19.1232145],[-98.626968,19.1247635],[-98.6254894,19.119572],[-98.628803,19.1162693],[-98.6307544,19.1023852],[-98.6324605,19.0987138],[-98.6261324,19.0921895],[-98.635207,19.0842659],[-98.6392982,19.0774405],[-98.6302318,19.0677941],[-98.6234705,19.0663818],[-98.6312253,19.0590319],[-98.6275146,19.0543647],[-98.6269691,19.0498288],[-98.6297882,19.043603],[-98.6198746,19.0350596],[-98.6280356,19.0214556],[-98.6385537,19.0076849],[-98.6476392,19.0020924],[-98.6503375,18.9980522],[-98.6512531,18.988417],[-98.6552452,18.9830882],[-98.6579529,18.9742011],[-98.6614996,18.9699129],[-98.6633208,18.9625125],[-98.6736294,18.9516652],[-98.6774609,18.9318537],[-98.6780919,18.9237175],[-98.6875653,18.9151732],[-98.6937364,18.9146323],[-98.6996255,18.9096421],[-98.7011575,18.9051293],[-98.7073432,18.9028555],[-98.707424,18.8953804],[-98.7056806,18.8907896],[-98.7110755,18.8787639],[-98.7137969,18.8768245],[-98.7134715,18.8672436],[-98.7083774,18.8720201],[-98.7040061,18.872695],[-98.6975065,18.8778078],[-98.7021855,18.8819128],[-98.7029405,18.8897449],[-98.7003137,18.8937957],[-98.6945826,18.8946877],[-98.6846292,18.9016051],[-98.6814145,18.9071673],[-98.6729147,18.9094409],[-98.6659289,18.9060397],[-98.663278,18.8983469],[-98.6687219,18.884843],[-98.6721023,18.8794484],[-98.679212,18.8760742],[-98.684079,18.8629626],[-98.6973404,18.8436778],[-98.7008931,18.8416205],[-98.7055097,18.8312573],[-98.7045435,18.8284978],[-98.7082043,18.8212795],[-98.7161839,18.8112482],[-98.7198303,18.8140095],[-98.7279457,18.805509],[-98.7277982,18.8001641],[-98.7320385,18.7957465],[-98.7302426,18.7907207],[-98.733663,18.7789472],[-98.7397172,18.7668825],[-98.7467763,18.759086],[-98.7489198,18.7516356],[-98.7467089,18.7503583],[-98.7534939,18.7429694],[-98.7386695,18.7371654],[-98.7289394,18.7452365],[-98.7159071,18.7391895],[-98.7185581,18.7365635],[-98.7239855,18.7190674],[-98.7284121,18.7142821],[-98.738514,18.7095355],[-98.7418308,18.7029436],[-98.7389364,18.6916933],[-98.7352774,18.6837837],[-98.7327173,18.6737722],[-98.7274947,18.6696143],[-98.7273516,18.6644228],[-98.7237717,18.6581956],[-98.7210271,18.6576608],[-98.717797,18.6383317],[-98.7166624,18.6252953],[-98.7140793,18.6237372],[-98.7114263,18.6164548],[-98.7142882,18.6117465],[-98.7133866,18.6083187],[-98.7179859,18.6035873],[-98.7175151,18.5955351],[-98.7125663,18.5879576],[-98.7148427,18.5718286],[-98.7166736,18.56592],[-98.7146627,18.5600347],[-98.7060264,18.5527287],[-98.7075023,18.5473854],[-98.70315,18.53979],[-98.7033259,18.5325197],[-98.7063895,18.5316189],[-98.7126919,18.5179532],[-98.7066723,18.5113679],[-98.704398,18.5052433],[-98.7083518,18.4979178],[-98.7073301,18.4928509],[-98.7018062,18.4969861],[-98.6989739,18.4949805],[-98.6995326,18.4896756],[-98.7038611,18.4785228],[-98.7104156,18.4680668],[-98.7102518,18.4630154],[-98.7068011,18.4547843],[-98.7114946,18.451801],[-98.7066978,18.4483208],[-98.7121199,18.445691],[-98.7300468,18.4404561],[-98.7346248,18.4439749],[-98.7378521,18.4534214],[-98.7449603,18.4545801],[-98.7475936,18.4514343],[-98.7521914,18.4539242],[-98.7545483,18.4613623],[-98.7577855,18.4630868],[-98.7584348,18.4719353],[-98.7629672,18.4763441],[-98.7721753,18.4780861],[-98.7744333,18.4819939],[-98.7796356,18.4803866],[-98.7869664,18.4850925],[-98.7833613,18.4878025],[-98.7984739,18.4977031],[-98.799826,18.502762],[-98.8072706,18.5079508],[-98.8124336,18.520337],[-98.8164086,18.5181781],[-98.8260938,18.5228542],[-98.834546,18.5211695],[-98.8403441,18.5127716],[-98.8395069,18.5038276],[-98.8370755,18.4986923],[-98.8378951,18.493709],[-98.8445808,18.4899669],[-98.8444966,18.4855955],[-98.8493935,18.4797992],[-98.8592114,18.4770927],[-98.8651087,18.4797515],[-98.8747238,18.4768093],[-98.8935052,18.4690581],[-98.9020458,18.4641204],[-98.9108613,18.4620615],[-98.9145081,18.4588719],[-98.915756,18.453976],[-98.9140967,18.4476719],[-98.9149538,18.4414246],[-98.9203952,18.4407043],[-98.9193173,18.4319648],[-98.9292383,18.427392],[-98.935152,18.4229038],[-98.9439346,18.4206228],[-98.9494031,18.4226087],[-98.9514338,18.4176334],[-98.9572048,18.4202182],[-98.9615133,18.4186579],[-98.9696959,18.41867],[-98.9739704,18.417139],[-98.9771996,18.4236341],[-98.9834222,18.4213753],[-98.9859011,18.4111162],[-98.9851986,18.4070759],[-98.9874622,18.3996246],[-98.9992236,18.3919302],[-99.0055355,18.3898365],[-99.0080606,18.386193],[-99.0159121,18.3863169],[-99.0205277,18.3770198],[-99.0314407,18.3649417],[-99.0383678,18.3587857],[-99.0435396,18.3594487],[-99.0439894,18.3553744],[-99.0485262,18.3512418],[-99.0587725,18.3488555],[-99.0576892,18.3384577],[-99.0630402,18.332789],[-99.0699682,18.3283711],[-99.0674413,18.3192096],[-99.0633289,18.3201717],[-99.0620545,18.31368],[-99.0636436,18.3068096],[-99.0596982,18.3048732],[-99.0600931,18.2966653],[-99.0517726,18.2898152],[-99.0577087,18.2842434],[-99.0658208,18.2804375],[-99.0624533,18.2722692],[-99.0548327,18.2713543],[-99.0539545,18.2625296],[-99.0630897,18.2629852],[-99.0616164,18.258852],[-99.0638988,18.2518695],[-99.057282,18.2499241],[-99.0544543,18.2515515],[-99.0490937,18.2595884],[-99.0317055,18.2723145],[-99.0169033,18.2663914],[-99.0147074,18.2632659],[-99.0189158,18.2571555],[-99.0217711,18.2499267],[-99.0193299,18.245411],[-99.0109334,18.2474537],[-99.0066391,18.2440829],[-99.0042626,18.2481152],[-98.9995099,18.2503806],[-98.9890408,18.2493177],[-98.9950039,18.237392],[-98.9953521,18.225711],[-98.9940623,18.2128589],[-98.9981561,18.1998635],[-99.0000663,18.1902049],[-98.9572191,18.1886975],[-98.9416178,18.184307],[-98.8818769,18.1661621],[-98.8523698,18.1176009],[-98.8707109,18.0582],[-98.8698118,18.0572167],[-98.8340569,18.0634924],[-98.8212173,18.0633751],[-98.8168049,18.0652106],[-98.8122833,18.063631],[-98.8141024,18.0563741],[-98.8107473,18.0507573],[-98.806346,18.0542302],[-98.8003367,18.0530778],[-98.7981974,18.0610123],[-98.7850699,18.0593057],[-98.7774252,18.056037],[-98.7726293,18.0489228],[-98.7661091,18.0507609],[-98.7586247,18.0447516],[-98.7561062,18.0470241],[-98.7465235,18.0465775],[-98.7435099,18.0444057],[-98.7350979,18.0450951],[-98.737903,18.0399975],[-98.7440167,18.0368921],[-98.7458389,18.0328201],[-98.7557396,18.0265805],[-98.7648014,18.0247275],[-98.7686223,18.019517],[-98.7778435,18.0195532],[-98.7891024,18.0215455],[-98.7940706,18.0239755],[-98.8012596,18.0220524],[-98.8132403,18.0112404],[-98.8164887,18.0043945],[-98.8110051,18.0008342],[-98.8080193,18.0030196],[-98.8016947,18.0030019],[-98.7669468,17.9892657],[-98.7608579,17.9910709],[-98.7542806,17.989801],[-98.7499191,17.9835601],[-98.7451261,17.9853043],[-98.7340647,17.9818526],[-98.716657,17.9732512],[-98.7071064,17.9655975],[-98.7095465,17.9595304],[-98.7016683,17.9541386],[-98.6975565,17.9580642],[-98.688102,17.9619382],[-98.6825189,17.9562831],[-98.6731028,17.9503027],[-98.6727021,17.9430888],[-98.665597,17.9448165],[-98.6566707,17.9402926],[-98.6522129,17.9341163],[-98.6403332,17.935476],[-98.6339319,17.9430517],[-98.6235103,17.9446612],[-98.6135547,17.9496379],[-98.6096656,17.9574462],[-98.5958009,17.9627715],[-98.5939038,17.9673028],[-98.588477,17.9697381],[-98.5859553,17.9747434],[-98.5753973,17.9763532],[-98.5697995,17.9724127],[-98.5648034,17.9742347],[-98.5570871,17.9728603],[-98.5539474,17.9787731],[-98.5437769,17.9733534],[-98.5404029,17.9818761],[-98.5360617,17.975685],[-98.5296283,17.9758225],[-98.525596,17.9851602],[-98.5267059,17.9898317],[-98.5236532,17.9942423],[-98.5151836,17.9925951],[-98.5049734,17.9934109],[-98.5004918,17.9955789],[-98.4944949,17.9890813],[-98.4867969,17.9907987],[-98.4837187,17.9860367],[-98.4763867,17.9810436],[-98.4718943,17.9913142],[-98.4607614,17.9893345],[-98.4481405,17.9907111],[-98.4401876,17.9819815],[-98.4342208,17.9839075],[-98.4250943,17.9769335],[-98.4327326,17.9719989],[-98.431682,17.9627796],[-98.4256343,17.9566338],[-98.4229764,17.9493277],[-98.4229432,17.9424411],[-98.4251281,17.9356971],[-98.4312764,17.9274279],[-98.4428684,17.9219683],[-98.4392295,17.9189958],[-98.4323644,17.9013313],[-98.4355179,17.8914114],[-98.4293681,17.8925961],[-98.4235601,17.8796306],[-98.4249801,17.8660312],[-98.420767,17.8636942],[-98.3987554,17.8609119],[-98.388918,17.8719382],[-98.389887,17.876429],[-98.3826039,17.8836697],[-98.3731503,17.8832221],[-98.3698014,17.8799627],[-98.3619745,17.8820323],[-98.3588203,17.8870591],[-98.3542757,17.8903126],[-98.3435901,17.8901977],[-98.3385958,17.8833583],[-98.3343168,17.8840335],[-98.3288249,17.8789265],[-98.3259777,17.8837397],[-98.3167722,17.8863973],[-98.3155694,17.8896749],[-98.3080605,17.8898688],[-98.3024032,17.892714],[-98.3035271,17.9003484],[-98.3008309,17.9078615],[-98.2901589,17.9160531],[-98.291954,17.9197175],[-98.2879501,17.9256812],[-98.2867075,17.930736],[-98.2822619,17.9346528],[-98.2786008,17.9282153],[-98.273323,17.9223654],[-98.2636989,17.9281076],[-98.2609158,17.9231368],[-98.2700706,17.9153202],[-98.2610851,17.9086045],[-98.2575269,17.8992316],[-98.2583235,17.8954639],[-98.2534314,17.8890573],[-98.25438,17.8854314],[-98.2475467,17.8832282],[-98.2465376,17.8784426],[-98.2338381,17.8793517],[-98.2097464,17.8797581],[-98.207117,17.8869962],[-98.2020158,17.8917553],[-98.1974967,17.891218],[-98.1919645,17.8957964],[-98.1830396,17.8957904],[-98.1768946,17.8974169],[-98.1701067,17.9058816],[-98.1650883,17.9184784],[-98.1720282,17.9225534],[-98.1729007,17.932345],[-98.1691081,17.9358167],[-98.1707097,17.9426158],[-98.169698,17.9526157],[-98.1660788,17.9535789],[-98.16243,17.962527],[-98.1565004,17.9628217],[-98.1495799,17.9712291],[-98.1440647,17.9706358],[-98.1319912,17.9775572],[-98.1321385,17.9834423],[-98.1293608,17.9872219],[-98.1168932,17.9824767],[-98.1104221,17.9818339],[-98.0972581,17.9827886],[-98.0947317,17.9852996],[-98.0818697,17.9813428],[-98.0749411,17.9807063],[-98.0654568,17.9855714],[-98.0591794,17.9819353],[-98.05423,17.9829279],[-98.0444768,17.9793904],[-98.0376965,17.9827052],[-98.0381973,17.9871987],[-98.0297869,17.9918365],[-98.024504,17.9852673],[-98.0193103,17.9854178],[-98.0151517,17.9805522],[-98.0035916,17.9776863],[-97.9995853,17.9755258],[-97.9899861,17.9753576],[-97.9864691,17.9785999],[-97.9826358,17.9689747],[-97.9793767,17.9644416],[-97.9744575,17.9655307],[-97.9675629,17.9707017],[-97.9517163,17.9665679],[-97.9373803,17.9679008],[-97.935165,17.9625229],[-97.9397132,17.9603399],[-97.9486961,17.948436],[-97.9435952,17.9461876],[-97.9378394,17.9401763],[-97.939767,17.9346575],[-97.9359707,17.924845],[-97.9363019,17.9171791],[-97.9282283,17.9163033],[-97.9207567,17.9173418],[-97.9157377,17.9154861],[-97.913992,17.9120458],[-97.9031049,17.909157],[-97.8977724,17.9125122],[-97.8846703,17.913743],[-97.8791116,17.9179092],[-97.8700562,17.9171744],[-97.8540107,17.911573],[-97.8323558,17.9085323],[-97.8308399,17.9137008],[-97.8192867,17.9147382],[-97.8112136,17.938127],[-97.8131242,17.9429128],[-97.8107329,17.9499026],[-97.8034638,17.9537754],[-97.8042809,17.9577805],[-97.7958713,17.9620557],[-97.7895572,17.9617966],[-97.7834695,17.966299],[-97.7800198,17.966445],[-97.7745477,17.9709503],[-97.772447,17.9772772],[-97.7676608,17.9785055],[-97.7663293,17.995017],[-97.7695932,17.9977349],[-97.766381,18.0059149],[-97.76013,18.0066528],[-97.7535306,18.0047078],[-97.7408256,18.0090865],[-97.7285382,18.0122256],[-97.7187485,18.0038238],[-97.6997422,18.0016365],[-97.7001224,18.0160079],[-97.6988301,18.0216939],[-97.7299262,18.0373229],[-97.7422914,18.0487201],[-97.7424643,18.0555091],[-97.7585977,18.0637777],[-97.7643534,18.0686351],[-97.7716711,18.0683676],[-97.7985439,18.0358021],[-97.7967528,18.0162148],[-97.7890599,18.0111695],[-97.790921,18.0041581],[-97.8027613,17.9984483],[-97.80988,17.9983035],[-97.8123626,17.9945365],[-97.8214042,17.9881616],[-97.8260114,17.9728408],[-97.8356314,17.9834502],[-97.8426044,17.9960817],[-97.8427335,18.0189306],[-97.8369014,18.0326434],[-97.8347822,18.0497985],[-97.8291801,18.0511404],[-97.813718,18.0628657],[-97.8106703,18.0677172],[-97.8183603,18.0730152],[-97.8258527,18.0760955],[-97.84946,18.0837407],[-97.860508,18.1018291],[-97.862829,18.1103245],[-97.8672209,18.1148953],[-97.8666601,18.1283408],[-97.8674829,18.1445713],[-97.8573438,18.1555809],[-97.8536267,18.167925],[-97.8444819,18.1742181],[-97.8471208,18.1806728],[-97.850521,18.1830571],[-97.8499114,18.1895061],[-97.8592266,18.1922892],[-97.8493235,18.2049929],[-97.8441031,18.2161511],[-97.8229606,18.223404],[-97.8276171,18.2365796],[-97.8154551,18.2620467],[-97.8052165,18.2730021],[-97.797297,18.2831749],[-97.7831946,18.2862819],[-97.7618622,18.2809567],[-97.7497472,18.275764],[-97.7212738,18.2760482],[-97.7141345,18.2796524],[-97.7108563,18.2853422],[-97.6997063,18.2882291],[-97.6806973,18.2897097],[-97.6774715,18.2911805],[-97.6694735,18.2899458],[-97.6592972,18.2930991],[-97.6547137,18.2930925],[-97.6439821,18.2794176],[-97.6395516,18.2524829],[-97.638943,18.2382509],[-97.6374752,18.2320387],[-97.6382731,18.2126171],[-97.6367237,18.202715],[-97.6340237,18.2000681],[-97.6359443,18.1935952],[-97.6531759,18.1752887],[-97.6377032,18.1655514],[-97.6205765,18.1560535],[-97.617979,18.153696],[-97.608604,18.1514465],[-97.6081742,18.1468286],[-97.604394,18.1373881],[-97.6081535,18.1310107],[-97.597455,18.1264577],[-97.5696198,18.1033874],[-97.5668164,18.0816451],[-97.561743,18.0729605],[-97.5637917,18.0625806],[-97.556323,18.0516814],[-97.5576307,18.0468814],[-97.5439055,18.0334446],[-97.5388306,18.0421326],[-97.5340457,18.0463383],[-97.5223745,18.0446477],[-97.5138971,18.037695],[-97.5059151,18.0278216],[-97.4991881,18.0297885],[-97.4892446,18.0255916],[-97.4825548,18.0272133],[-97.4669182,18.0269513],[-97.4639953,18.0350491],[-97.453225,18.0437494],[-97.4547042,18.0486452],[-97.447481,18.0555162],[-97.4493342,18.0616426],[-97.4444576,18.0639521],[-97.441363,18.0719432],[-97.4255592,18.069276],[-97.4230916,18.0777328],[-97.4154361,18.0915835],[-97.4143704,18.096723],[-97.4096282,18.1020663],[-97.4051848,18.1029581],[-97.4023391,18.1072064],[-97.39487,18.1002811],[-97.3890839,18.1020597],[-97.3826546,18.0971715],[-97.3763345,18.0969733],[-97.3719798,18.1024773],[-97.3640311,18.1067924],[-97.3604449,18.1128144],[-97.355104,18.1167556],[-97.3549084,18.1214043],[-97.3431008,18.1264051],[-97.3323735,18.1452184],[-97.3184418,18.1457807],[-97.3099625,18.153038],[-97.3085358,18.1560883],[-97.2982505,18.1577257],[-97.2975954,18.159645],[-97.2867625,18.1587629],[-97.2813899,18.1605265],[-97.2746071,18.1571254],[-97.2583341,18.1641045],[-97.2438953,18.1671025],[-97.2426867,18.1713085],[-97.232584,18.1704575],[-97.2250419,18.1742397],[-97.2173222,18.1644317],[-97.2143485,18.1636676],[-97.2052235,18.1714801],[-97.1872219,18.1751572],[-97.1923532,18.192375],[-97.1833938,18.1990092],[-97.167368,18.2009033],[-97.1671783,18.1941731],[-97.1610101,18.1897541],[-97.1619714,18.1864896],[-97.154125,18.1797735],[-97.1436844,18.1680259],[-97.1405067,18.1733309],[-97.1338185,18.1741343],[-97.1386404,18.1671006],[-97.1338852,18.1577203],[-97.1239031,18.1624642],[-97.1129009,18.1514395],[-97.1057403,18.1480944],[-97.0902046,18.1530312],[-97.0887217,18.1491749],[-97.0617934,18.1538879],[-97.0420941,18.1565694],[-97.0377096,18.1725033],[-97.0402045,18.1748192],[-97.0090448,18.2058672],[-97.0029497,18.2127281],[-96.9992831,18.2222352],[-96.9914794,18.2307394],[-96.9859451,18.2303962],[-96.9786156,18.232584],[-96.9634975,18.2291057],[-96.9516391,18.2197888],[-96.9446571,18.221211],[-96.9409113,18.2195678],[-96.9323829,18.2215633],[-96.9303229,18.2322767],[-96.9267347,18.2374994],[-96.9201006,18.2400537],[-96.918579,18.2317711],[-96.9145825,18.2325383],[-96.9124108,18.2387774],[-96.9069627,18.236508],[-96.8963663,18.2405345],[-96.8882658,18.2408752],[-96.8752653,18.2437134],[-96.8628496,18.241121],[-96.8462196,18.2468506],[-96.8465257,18.2507521],[-96.8417122,18.2564526],[-96.8426567,18.2650312],[-96.8340017,18.2759276],[-96.8292634,18.283968],[-96.8256724,18.2964049],[-96.8208544,18.3004453],[-96.8181492,18.3061915],[-96.822282,18.3101585],[-96.821378,18.3212516],[-96.8131099,18.3247565],[-96.8105833,18.3286624],[-96.8011256,18.3291497],[-96.7950465,18.3317515],[-96.7953567,18.3348954],[-96.7842133,18.3383282],[-96.7828111,18.3479208],[-96.7860017,18.3534521],[-96.781451,18.3583421],[-96.7797342,18.3641917],[-96.7765729,18.3645867],[-96.7686821,18.3731244],[-96.7634957,18.3750068],[-96.763158,18.3827479],[-96.7519132,18.380154],[-96.7496229,18.3821558],[-96.7533086,18.3929429],[-96.7326667,18.3981519],[-96.724683,18.4073877],[-96.7285225,18.4091471],[-96.7434981,18.4073253],[-96.7513923,18.4112524],[-96.7590851,18.4082637],[-96.7660554,18.412496],[-96.7656935,18.4173514],[-96.7704281,18.4215571],[-96.762751,18.4254275],[-96.7657638,18.4287234],[-96.7704418,18.4293012],[-96.7754688,18.4262123],[-96.7810119,18.4290695],[-96.7778072,18.4349677],[-96.7840042,18.4395863],[-96.7848181,18.4441963],[-96.7764553,18.4461978],[-96.776528,18.449811],[-96.7848548,18.4542833],[-96.7858289,18.459658],[-96.7803161,18.4634348],[-96.7822467,18.4667099],[-96.7892068,18.4671398],[-96.7914203,18.4713233],[-96.7914369,18.4774026],[-96.7954558,18.4794516],[-96.7965525,18.4869937],[-96.7933596,18.4905843],[-96.7976406,18.4992962],[-96.7942541,18.5017028],[-96.7970118,18.5119352],[-96.8043782,18.5121953],[-96.8089,18.5173111],[-96.8134462,18.5176179],[-96.8184767,18.5114717],[-96.8240386,18.5111106],[-96.8245418,18.4987928],[-96.8309799,18.4975023],[-96.8389609,18.4930918],[-96.8424077,18.49342],[-96.8427674,18.5016652],[-96.8498399,18.5070114],[-96.8538403,18.5066554],[-96.8559525,18.5108661],[-96.8620826,18.5108895],[-96.8653326,18.5158315],[-96.8642224,18.5235235],[-96.8735133,18.5232317],[-96.8787996,18.5374501],[-96.8858981,18.5334543],[-96.899251,18.548648],[-96.9067238,18.5468461],[-96.9096175,18.5398098],[-96.9210898,18.5349972],[-96.9259448,18.5349255],[-96.9315553,18.5405029],[-96.9421433,18.5441362],[-96.9529576,18.553899],[-96.9644597,18.5470322],[-96.9652063,18.5416618],[-96.9746033,18.5437392],[-96.9781667,18.5406781],[-96.9737876,18.5367635],[-96.9848186,18.5312019],[-96.9962405,18.528512],[-96.9989173,18.5319165],[-97.0068253,18.5233028],[-97.0152599,18.5208827],[-97.0173865,18.5155378],[-97.0210442,18.5124266],[-97.027002,18.5141043],[-97.0365841,18.5080718],[-97.0426027,18.5006336],[-97.0463781,18.4995602],[-97.0491842,18.4902703],[-97.051966,18.4857381],[-97.0613348,18.4759283],[-97.0717677,18.4678053],[-97.0760738,18.4660012],[-97.0799675,18.4545078],[-97.0834714,18.4839427],[-97.0894263,18.4884269],[-97.1126982,18.5213145],[-97.1136973,18.5313794],[-97.1237874,18.5428522],[-97.1445631,18.5709279],[-97.144004,18.5783834],[-97.1458578,18.5821594],[-97.1414428,18.5964179],[-97.1489893,18.5967935],[-97.1622613,18.6059318],[-97.1694245,18.6050387],[-97.1744056,18.6066622],[-97.1749309,18.6149221],[-97.1767671,18.6171897],[-97.1840682,18.616687],[-97.1855709,18.6199858],[-97.1920393,18.6235353],[-97.1983542,18.6297006],[-97.2136446,18.6251557],[-97.2202774,18.6289386],[-97.2242368,18.6367596],[-97.2352262,18.6430164],[-97.2418547,18.6428541],[-97.2452433,18.6402187],[-97.2522717,18.6267264],[-97.2594308,18.624267],[-97.2637934,18.6270366],[-97.2718519,18.6277792],[-97.2744025,18.634978],[-97.2783339,18.6376562],[-97.2780285,18.6433472],[-97.2820835,18.6522433],[-97.2912124,18.6554575],[-97.2939068,18.664928],[-97.3032027,18.6742856],[-97.309472,18.6737829],[-97.3227082,18.6642225],[-97.3259523,18.6696282],[-97.3295562,18.6712854],[-97.3327622,18.680793],[-97.3358191,18.6785345],[-97.3439746,18.685759],[-97.3403835,18.6934549],[-97.3450135,18.698402],[-97.3421953,18.7058966],[-97.3500059,18.717009],[-97.3421495,18.7258159],[-97.3471944,18.7274369],[-97.3456496,18.7336247],[-97.3415269,18.7416179],[-97.3441185,18.7493841],[-97.3396934,18.7589784],[-97.3303205,18.7670759],[-97.3370128,18.7683773],[-97.3401857,18.7783994],[-97.3461887,18.7783352],[-97.3523132,18.7752479],[-97.3548244,18.7793642],[-97.352037,18.7928939],[-97.3444519,18.8003211],[-97.3377545,18.7990911],[-97.3325357,18.8079003],[-97.3263456,18.8102465],[-97.3262636,18.8196767],[-97.320659,18.8206352],[-97.3210496,18.8264572],[-97.3245342,18.830422],[-97.3205319,18.8373786],[-97.3148541,18.8382098],[-97.3088281,18.8429103],[-97.3002981,18.8598682],[-97.2968913,18.860992],[-97.2973116,18.8673103],[-97.2744189,18.8880517],[-97.2693295,18.8917255],[-97.2633518,18.8929304],[-97.2458025,18.8933006],[-97.2431567,18.9009488],[-97.2424181,18.9086458],[-97.2476005,18.9193335],[-97.2509032,18.9222085],[-97.2552655,18.9384577],[-97.2551412,18.9505743],[-97.2585569,18.9559371],[-97.2591622,18.9661088],[-97.2566032,18.9703725],[-97.2582589,18.9777142],[-97.2612928,18.981282],[-97.2789225,18.996747],[-97.2851258,18.9994309],[-97.27953,19.0064841],[-97.2768553,19.0152665],[-97.2688971,19.0282687],[-97.2666257,19.0303132],[-97.2695195,19.0639179],[-97.2658112,19.0773248],[-97.2623521,19.084939],[-97.2624155,19.0925633],[-97.2601898,19.0985811],[-97.2556658,19.1017099],[-97.2387011,19.1087676],[-97.2266896,19.1226185],[-97.2223217,19.123428],[-97.2219882,19.128426],[-97.2174805,19.1330253],[-97.2154345,19.1384615],[-97.2027161,19.1412599],[-97.1971979,19.1465591],[-97.2021098,19.1511336],[-97.208122,19.1599556],[-97.2032455,19.1614721],[-97.1966442,19.1665388],[-97.1945891,19.1718126],[-97.1899104,19.1698213],[-97.188003,19.1638862],[-97.183682,19.1627382],[-97.181499,19.1690411],[-97.1704314,19.1638644],[-97.1597106,19.1652789],[-97.1525042,19.1626658],[-97.1485086,19.1650481],[-97.1353932,19.1611775],[-97.1342533,19.1645997],[-97.1279002,19.1683387],[-97.1193247,19.166304],[-97.1089579,19.1677193],[-97.0962926,19.1638063],[-97.0891696,19.1629709],[-97.0751016,19.1578825],[-97.0678318,19.1593095],[-97.0645284,19.1580563],[-97.0679802,19.148459],[-97.0575043,19.1401627],[-97.0558929,19.1342327],[-97.0458399,19.1280289],[-97.0420082,19.1285979],[-97.034456,19.1376683],[-97.0284482,19.1347239],[-97.029433,19.1429382],[-97.0421361,19.151387],[-97.0383063,19.157674],[-97.0391604,19.1625541],[-97.0430361,19.1650049],[-97.0413086,19.1739469],[-97.0452204,19.1786749],[-97.0495154,19.1888445],[-97.0537409,19.1919649],[-97.0559896,19.1979671],[-97.0520572,19.2016627],[-97.0527974,19.2052362],[-97.0449605,19.2106372],[-97.0355583,19.2127341],[-97.0347162,19.2162568],[-97.0246992,19.2194865],[-97.0208134,19.2253514],[-97.0133557,19.2320818],[-97.0077229,19.2309853],[-97.0012345,19.236546],[-97.0009708,19.2405931],[-97.005304,19.2495311],[-96.9962837,19.2635088],[-96.9946905,19.2702391],[-96.9898822,19.2779626],[-96.9859425,19.2813068],[-96.9937597,19.2877646],[-97.0004591,19.2907983],[-97.00346,19.29638],[-97.0108151,19.296307],[-97.0129553,19.2910733],[-97.0193557,19.296868],[-97.0242388,19.2944469],[-97.0309906,19.2973268],[-97.0345084,19.3067733],[-97.041825,19.3123367],[-97.0434285,19.3190494],[-97.0465882,19.3197789],[-97.0550788,19.3121961],[-97.0624977,19.315628],[-97.0675082,19.3152297],[-97.0678894,19.3213609],[-97.0837724,19.310283],[-97.0883269,19.3119305],[-97.0980147,19.3041363],[-97.1059475,19.3063807],[-97.115187,19.3048218],[-97.1296118,19.3091786],[-97.1318263,19.3165642],[-97.1361563,19.3224141],[-97.15019,19.3209074],[-97.1538287,19.3242097],[-97.1667276,19.3291193],[-97.1757103,19.3278593],[-97.1883446,19.3216257],[-97.1903354,19.3157138],[-97.1989977,19.3091219],[-97.2008403,19.3162885],[-97.2049521,19.3182014],[-97.2106072,19.3170428],[-97.2156053,19.3233197],[-97.2135305,19.3270756],[-97.2062311,19.3270213],[-97.2047857,19.3313647],[-97.2100883,19.3378778],[-97.2091976,19.3464642],[-97.2067013,19.3489865],[-97.210863,19.3580036],[-97.2182296,19.3562755],[-97.2233911,19.3569388],[-97.2310888,19.3627078],[-97.2314656,19.3695246],[-97.236966,19.3716128],[-97.2480218,19.3786807],[-97.2567555,19.3818997],[-97.2644403,19.3806216],[-97.2783632,19.3851383],[-97.2847118,19.3903517],[-97.287152,19.3892957],[-97.3143551,19.3919147],[-97.3377501,19.3925307],[-97.3486201,19.3784937],[-97.3569038,19.3783613],[-97.3604531,19.3760293],[-97.3716999,19.4030591],[-97.3941024,19.4072956],[-97.3957054,19.4186067],[-97.3924058,19.417846],[-97.3900976,19.4285607],[-97.3815433,19.4323668],[-97.3674633,19.4320255],[-97.3643515,19.4348494],[-97.3572957,19.4323759],[-97.3521465,19.4419527],[-97.3532716,19.4483124],[-97.346893,19.4509986],[-97.3482585,19.484627],[-97.3557298,19.4929102],[-97.3607461,19.4884934],[-97.3706706,19.4949949],[-97.3799902,19.493271],[-97.3949236,19.492421],[-97.4045559,19.4958663],[-97.4058551,19.5008103],[-97.4008823,19.506914],[-97.4021213,19.5154171],[-97.407502,19.5218803],[-97.4054709,19.5254534],[-97.4121298,19.5359194],[-97.4207493,19.5398182],[-97.4249336,19.5435809],[-97.4278023,19.5555563],[-97.4268813,19.5691597],[-97.4305884,19.5761704],[-97.4303234,19.5861344],[-97.4341212,19.588356],[-97.4280233,19.6017001],[-97.4280466,19.6158972],[-97.4237622,19.6175136],[-97.4164261,19.627967],[-97.4081089,19.6219716],[-97.4027473,19.615343],[-97.3930587,19.6235313],[-97.3904367,19.6271793],[-97.3849706,19.6279438],[-97.3828014,19.6353332],[-97.3766925,19.6347996],[-97.3646709,19.6492334],[-97.3608987,19.6513037],[-97.3428635,19.6685523],[-97.3411616,19.6757517],[-97.331609,19.6763995],[-97.3264026,19.6789183],[-97.3132182,19.6753629],[-97.3043126,19.6717372],[-97.3074239,19.6845374],[-97.3156053,19.6920357],[-97.3246904,19.7070968],[-97.3331404,19.7167798],[-97.3227577,19.7219772],[-97.3151581,19.7300017],[-97.3137817,19.7360463],[-97.318724,19.7356225],[-97.3210838,19.7478316],[-97.3188363,19.7507076],[-97.3195979,19.7613479],[-97.3179111,19.7671641],[-97.3196708,19.7738522],[-97.3131122,19.7914889],[-97.3141904,19.802731],[-97.3165993,19.8068765],[-97.3167004,19.8170217],[-97.3136047,19.8220891],[-97.3155706,19.8249068],[-97.3127862,19.831154],[-97.3082463,19.8344447],[-97.3104234,19.8408676],[-97.3080853,19.8443004],[-97.3086286,19.8584526],[-97.3044972,19.8657421],[-97.3000922,19.8812999],[-97.2905803,19.8865728],[-97.2904199,19.8905734],[-97.2949217,19.8924949],[-97.2935205,19.8965255],[-97.2869499,19.9014569],[-97.280969,19.91235],[-97.2748112,19.9147198],[-97.269493,19.9209606],[-97.2627542,19.9228595],[-97.2559527,19.9324402],[-97.2622389,19.9386429],[-97.2635697,19.9444086],[-97.2687846,19.9462979],[-97.2687341,19.9592049],[-97.2616301,19.9714191],[-97.2610486,19.9763584],[-97.2535276,19.9833226],[-97.2450314,19.9874258],[-97.2399694,19.9873203],[-97.2320918,19.9992459],[-97.2252922,20.0020527],[-97.2246367,20.0094225],[-97.2134874,20.0119064],[-97.2071635,20.0144545],[-97.2045367,20.0299111],[-97.2111013,20.0425519],[-97.2070939,20.0469343],[-97.2061519,20.0563549],[-97.201518,20.0580612],[-97.1960038,20.0542215],[-97.1935345,20.0592627],[-97.1854982,20.0623403],[-97.1809064,20.0684861],[-97.1822043,20.0722361],[-97.1770801,20.0771998],[-97.18364,20.0800386],[-97.1740252,20.0921741],[-97.1683389,20.0952602],[-97.1538755,20.1129354],[-97.1335772,20.1238528],[-97.1332103,20.1270659],[-97.1234055,20.1352143],[-97.1311823,20.1399091],[-97.13938,20.1399176],[-97.1471849,20.1361174],[-97.1527131,20.1390155],[-97.1520084,20.1461486],[-97.1566977,20.1468934],[-97.1513978,20.1579884],[-97.1527778,20.1599936],[-97.1608221,20.1608078],[-97.1644134,20.1518315],[-97.228509,20.1726171],[-97.2319579,20.1719524],[-97.2423926,20.1744775],[-97.2443379,20.181207],[-97.2548323,20.1772984],[-97.2560691,20.1796949],[-97.2636204,20.1781245],[-97.2705439,20.187519],[-97.2757574,20.1830098],[-97.2831913,20.1811121],[-97.2852817,20.1907307],[-97.3638734,20.2160889],[-97.3781381,20.2261502],[-97.3741667,20.235515],[-97.3763802,20.2374406],[-97.3747252,20.2439558],[-97.3771915,20.2488748],[-97.3819088,20.2496564],[-97.3918074,20.2454542],[-97.4002677,20.2391514],[-97.4063669,20.2326321],[-97.4250625,20.2440037],[-97.4359362,20.2404579],[-97.4452761,20.2461607],[-97.4518849,20.2382823],[-97.4595627,20.2331034],[-97.4649854,20.2211589],[-97.4634134,20.2129225],[-97.464685,20.2061893],[-97.4623389,20.1932418],[-97.4624846,20.1851757],[-97.4650594,20.1802184],[-97.4689307,20.1781102],[-97.4768799,20.1776705],[-97.4864699,20.1721596],[-97.4873507,20.1654445],[-97.502278,20.1579724],[-97.5053841,20.1539381],[-97.5045628,20.1491761],[-97.496675,20.1474976],[-97.4996986,20.142049],[-97.4947212,20.1378467],[-97.5008627,20.1324439],[-97.5082934,20.1309476],[-97.5115684,20.1249069],[-97.5181509,20.1241043],[-97.5246908,20.1198747],[-97.5273942,20.1148789],[-97.5391945,20.1162308],[-97.5444591,20.1038901],[-97.5512782,20.1004378],[-97.5568942,20.1073619],[-97.558651,20.1005296],[-97.5634465,20.0899778],[-97.5608463,20.0871202],[-97.5698853,20.0821281],[-97.5760413,20.0846431],[-97.5814043,20.0789467],[-97.5912359,20.0817132],[-97.5960907,20.0929842],[-97.594369,20.097464],[-97.5878782,20.0976571],[-97.584235,20.0947571],[-97.5801484,20.0969437],[-97.5788802,20.1032005],[-97.5875041,20.1123453],[-97.5935884,20.1154213],[-97.5980713,20.1152746],[-97.6027353,20.1193138],[-97.6050613,20.131722],[-97.6010182,20.1405128],[-97.6062367,20.1438713],[-97.6076733,20.1518986],[-97.6044891,20.1668736],[-97.6163913,20.1689972],[-97.627588,20.1768221],[-97.6291494,20.1818099],[-97.6387134,20.1826373],[-97.638375,20.1767073],[-97.6450738,20.1769426],[-97.6455898,20.1686958],[-97.6535465,20.1634369],[-97.6567089,20.1683378],[-97.6703503,20.1690757],[-97.6805757,20.1651479],[-97.6895609,20.166813],[-97.6965984,20.1768807],[-97.6987184,20.1823784],[-97.7069488,20.1821136],[-97.7137218,20.1844606],[-97.71513,20.187969],[-97.7202297,20.1891679],[-97.7257591,20.1868566],[-97.7250419,20.1831613],[-97.7314612,20.1813484],[-97.7362172,20.1899144],[-97.7413697,20.1930602],[-97.7385967,20.2020989],[-97.7307791,20.2047773],[-97.7306476,20.2087015],[-97.7337343,20.2153811],[-97.7328577,20.2193736],[-97.7366679,20.2271839],[-97.7345641,20.2348131],[-97.7350765,20.2421541],[-97.738411,20.2466119],[-97.7389998,20.2532065],[-97.7453962,20.2588987],[-97.7512412,20.2601209],[-97.7572975,20.279079],[-97.7487528,20.2787987],[-97.7453932,20.2748865],[-97.740895,20.2745727],[-97.7307849,20.2811224],[-97.7223413,20.2841429],[-97.7084057,20.2852932],[-97.7068589,20.2906857],[-97.7070354,20.2991869],[-97.7030044,20.3029401],[-97.6950444,20.3004368],[-97.6881178,20.303513],[-97.6813976,20.3024324],[-97.6762264,20.3080521],[-97.6783574,20.313875],[-97.6834993,20.3140293],[-97.6841971,20.3256591],[-97.6798814,20.3281136],[-97.6731251,20.3366073],[-97.6768987,20.3391912],[-97.6744013,20.3472365],[-97.6793449,20.3499179],[-97.6836532,20.3452044],[-97.6900889,20.3336093],[-97.6946248,20.3351624],[-97.6965531,20.3198881],[-97.7011527,20.3208483],[-97.702509,20.3255401],[-97.7127471,20.328955],[-97.7277772,20.3407266],[-97.7347447,20.3478749],[-97.7429032,20.3517947],[-97.7442036,20.3691838],[-97.7472295,20.3705506],[-97.7482437,20.3784579],[-97.7549582,20.3802302],[-97.758479,20.3788685],[-97.7648935,20.3806953],[-97.7654066,20.3845427],[-97.7624259,20.3892241],[-97.7625911,20.3978656],[-97.7580026,20.3992201],[-97.7557219,20.4053763],[-97.7558449,20.4129551],[-97.7469069,20.4221875],[-97.7458543,20.4262965],[-97.7375939,20.4403116],[-97.7352141,20.4414109],[-97.7345993,20.4513063],[-97.7287432,20.4573169],[-97.7231088,20.4575341],[-97.7210547,20.4536483],[-97.7088237,20.4548482],[-97.7076765,20.4481253],[-97.7003097,20.444586],[-97.6991208,20.4346121],[-97.6960408,20.4314087],[-97.6880682,20.4274329],[-97.6800322,20.4253386],[-97.6726377,20.4180599],[-97.6739289,20.4112094],[-97.6720752,20.4085294],[-97.6657549,20.4082154],[-97.6609956,20.4129539],[-97.6545944,20.4099221],[-97.6496028,20.4109798],[-97.6463604,20.4084761],[-97.6411159,20.4119312],[-97.6375541,20.4179056],[-97.6373553,20.4298064],[-97.6354682,20.4323541],[-97.6407237,20.4422717],[-97.634123,20.4528447],[-97.6267859,20.4510653],[-97.6252731,20.4566665],[-97.6199101,20.4553902],[-97.6072213,20.4619844],[-97.6009837,20.461022],[-97.593674,20.467899],[-97.5860894,20.4728506],[-97.5819739,20.4826115],[-97.5766953,20.4869171],[-97.5760455,20.4909002],[-97.5677938,20.4909692],[-97.5600559,20.489413],[-97.5560571,20.48469],[-97.5503501,20.4865327],[-97.5433115,20.4847427],[-97.5410433,20.4897116],[-97.5451575,20.4950966],[-97.552078,20.5073616],[-97.5535708,20.5045398],[-97.5725967,20.5321814],[-97.5788754,20.5387002],[-97.5770114,20.545048],[-97.5823489,20.5473966],[-97.5832458,20.5516465],[-97.5899528,20.5561497],[-97.6026453,20.5592844],[-97.6100758,20.563907],[-97.6256445,20.5634754],[-97.6269557,20.5583633],[-97.6366645,20.5537117],[-97.6375359,20.5587254],[-97.6506087,20.5649509],[-97.6577478,20.555472],[-97.6562075,20.5455191],[-97.6613067,20.5456327],[-97.6648775,20.5496198],[-97.6754816,20.5549915],[-97.6833646,20.5546512],[-97.6827359,20.5626303],[-97.6806058,20.5675297],[-97.685554,20.5728962],[-97.6942372,20.5706786],[-97.7012051,20.5742199],[-97.6970222,20.5967598],[-97.6934191,20.6026807],[-97.6995436,20.603403],[-97.7048374,20.6016647],[-97.7105365,20.6086712],[-97.712653,20.6203502],[-97.7044682,20.6292242],[-97.7100778,20.6315805],[-97.7151196,20.6369484],[-97.7259615,20.6367313],[-97.7312027,20.6377902],[-97.7354213,20.6411284],[-97.7373262,20.6464313],[-97.7483161,20.6454205],[-97.7521807,20.6490297],[-97.7503604,20.6528285],[-97.7406062,20.6600914],[-97.7385416,20.6666747],[-97.7405577,20.6734775],[-97.7370674,20.6796553],[-97.7405971,20.6815684],[-97.7394726,20.6871961],[-97.746038,20.6866365],[-97.7567574,20.6892049],[-97.7564775,20.697347],[-97.751526,20.7015577],[-97.7515883,20.7131258],[-97.7501749,20.7240749],[-97.7529679,20.7323699],[-97.7490247,20.7329827],[-97.727028,20.7431717],[-97.7249753,20.7514258],[-97.725879,20.7586314],[-97.7201554,20.7650419],[-97.7198876,20.7767988],[-97.7241463,20.7782914],[-97.7280645,20.7849559],[-97.7258353,20.79063],[-97.7139681,20.7995632],[-97.7049426,20.7974398],[-97.7033111,20.7937676],[-97.6946528,20.7965316],[-97.6951793,20.8000388],[-97.7389149,20.8015346],[-97.7482099,20.8090147],[-97.7503485,20.8147884],[-97.7626759,20.8186838],[-97.7709496,20.8260847],[-97.77704,20.8243287],[-97.7903953,20.8168329],[-97.7971788,20.8211637],[-97.7995065,20.8192622],[-97.8074114,20.8215265],[-97.8165752,20.8180178],[-97.8240486,20.8098099],[-97.8302539,20.8079572],[-97.8316822,20.8128266],[-97.8366876,20.8127022],[-97.8498755,20.8190678],[-97.84308,20.8244463],[-97.843553,20.8313761],[-97.8390353,20.8362491],[-97.8421775,20.8398866]]]},"properties":{"CVEGEO":"21","CVE_ENT":"21","NOMGEO":"Puebla"}}
]}